SL-16 R/B               
1 25400U 98043G   25365.88313583  .00000144  00000+0  79363-4 0  9995
2 25400  98.8150 313.8108 0009314 205.8578 154.2138 14.26030852429325
SL-16 R/B               
1 25407U 98045B   25365.90646566  .00000044  00000+0  46280-4 0  9998
2 25407  71.0126 324.1188 0005718 144.4037 215.7468 14.16181566417507
ISS (ZARYA)             
1 25544U 98067A   25365.75865998  .00015131  00000+0  28223-3 0  9998
2 25544  51.6330  48.2919 0007527 325.0386  35.0108 15.48982944545804
CZ-4B R/B               
1 25732U 99025C   25365.73661315  .00000157  00000+0  96366-4 0  9993
2 25732  98.6741  46.5892 0037169 178.8546 291.5069 14.18248821378532
OKEAN-O                 
1 25860U 99039A   25365.71772406  .00001438  00000+0  19606-3 0  9996
2 25860  97.9577  61.2530 0001310 114.4766 245.6583 14.80199281424330
SL-16 R/B               
1 25861U 99039B   25365.76214768  .00001204  00000+0  15973-3 0  9998
2 25861  98.0099  59.9121 0016032 115.8199 244.4669 14.81618691426802
DELTA 2 R/B             
1 25876U 99041E   25365.90241622  .00003028  00000+0  52484-3 0  9996
2 25876  51.7595 211.9476 0504244 148.2468 214.9945 14.11468614353454
HELIOS 1B               
1 25977U 99064A   25365.70800727  .00003617  00000+0  40657-3 0  9991
2 25977  98.1754 260.9364 0000533  35.4024 324.7227 14.87370792675154
TERRA                   
1 25994U 99068A   25365.91002405  .00000842  00000+0  18108-3 0  9997
2 25994  97.9722  56.8884 0003181  55.6854 356.7189 14.60926582385189
SL-16 R/B               
1 26070U 00006B   25365.90425928  .00000321  00000+0  18747-3 0  9996
2 26070  71.0014 240.3631 0018735 282.8196  77.0833 14.15813152338967
TITAN 4B R/B            
1 26474U 00047B   25365.90063754  .00005629  00000+0  35820-3 0  9991
2 26474  67.9888 231.0369 0037660 121.2563 239.2284 15.08936805382689
ENVISAT                 
1 27386U 02009A   25365.95019499  .00000264  00000+0  99422-4 0  9995
2 27386  98.3626 316.2065 0001107  88.1807 295.1197 14.39007536249430
