CCSDS_OMM_VERS = 2.0
CREATION_DATE  = 
ORIGINATOR     = 

OBJECT_NAME    = SL-16 R/B
OBJECT_ID      = 1998-043G
CENTER_NAME    = EARTH
REF_FRAME      = TEME
TIME_SYSTEM    = UTC
MEAN_ELEMENT_THEORY = SGP/SGP4

EPOCH          = 2025-12-31T21:11:42.935712
MEAN_MOTION    = 14.26030852
ECCENTRICITY   = .00093148
INCLINATION    = 98.8150
RA_OF_ASC_NODE = 313.8108
ARG_OF_PERICENTER = 205.8578
MEAN_ANOMALY   = 154.2138

EPHEMERIS_TYPE = 0
CLASSIFICATION_TYPE = U
NORAD_CAT_ID   = 25400
ELEMENT_SET_NO = 999
REV_AT_EPOCH   = 42932
BSTAR          = .79362959E-4
MEAN_MOTION_DOT = .144E-5
MEAN_MOTION_DDOT = 0

CCSDS_OMM_VERS = 2.0
CREATION_DATE  = 
ORIGINATOR     = 

OBJECT_NAME    = SL-16 R/B
OBJECT_ID      = 1998-045B
CENTER_NAME    = EARTH
REF_FRAME      = TEME
TIME_SYSTEM    = UTC
MEAN_ELEMENT_THEORY = SGP/SGP4

EPOCH          = 2025-12-31T21:45:18.633024
MEAN_MOTION    = 14.16181566
ECCENTRICITY   = .00057183
INCLINATION    = 71.0126
RA_OF_ASC_NODE = 324.1188
ARG_OF_PERICENTER = 144.4037
MEAN_ANOMALY   = 215.7468

EPHEMERIS_TYPE = 0
CLASSIFICATION_TYPE = U
NORAD_CAT_ID   = 25407
ELEMENT_SET_NO = 999
REV_AT_EPOCH   = 41750
BSTAR          = .46280256E-4
MEAN_MOTION_DOT = .44E-6
MEAN_MOTION_DDOT = 0

CCSDS_OMM_VERS = 2.0
CREATION_DATE  = 
ORIGINATOR     = 

OBJECT_NAME    = ISS (ZARYA)
OBJECT_ID      = 1998-067A
CENTER_NAME    = EARTH
REF_FRAME      = TEME
TIME_SYSTEM    = UTC
MEAN_ELEMENT_THEORY = SGP/SGP4

EPOCH          = 2025-12-31T18:12:28.222272
MEAN_MOTION    = 15.48982944
ECCENTRICITY   = .00075274
INCLINATION    = 51.6330
RA_OF_ASC_NODE = 48.2919
ARG_OF_PERICENTER = 325.0386
MEAN_ANOMALY   = 35.0108

EPHEMERIS_TYPE = 0
CLASSIFICATION_TYPE = U
NORAD_CAT_ID   = 25544
ELEMENT_SET_NO = 999
REV_AT_EPOCH   = 54580
BSTAR          = .28222753E-3
MEAN_MOTION_DOT = .15131E-3
MEAN_MOTION_DDOT = 0

CCSDS_OMM_VERS = 2.0
CREATION_DATE  = 
ORIGINATOR     = 

OBJECT_NAME    = CZ-4B R/B
OBJECT_ID      = 1999-025C
CENTER_NAME    = EARTH
REF_FRAME      = TEME
TIME_SYSTEM    = UTC
MEAN_ELEMENT_THEORY = SGP/SGP4

EPOCH          = 2025-12-31T17:40:43.376160
MEAN_MOTION    = 14.18248821
ECCENTRICITY   = .00371691
INCLINATION    = 98.6741
RA_OF_ASC_NODE = 46.5892
ARG_OF_PERICENTER = 178.8546
MEAN_ANOMALY   = 291.5069

EPHEMERIS_TYPE = 0
CLASSIFICATION_TYPE = U
NORAD_CAT_ID   = 25732
ELEMENT_SET_NO = 999
REV_AT_EPOCH   = 37853
BSTAR          = .96365722E-4
MEAN_MOTION_DOT = .157E-5
MEAN_MOTION_DDOT = 0

CCSDS_OMM_VERS = 2.0
CREATION_DATE  = 
ORIGINATOR     = 

OBJECT_NAME    = OKEAN-O
OBJECT_ID      = 1999-039A
CENTER_NAME    = EARTH
REF_FRAME      = TEME
TIME_SYSTEM    = UTC
MEAN_ELEMENT_THEORY = SGP/SGP4

EPOCH          = 2025-12-31T17:13:31.358784
MEAN_MOTION    = 14.80199281
ECCENTRICITY   = .00013104
INCLINATION    = 97.9577
RA_OF_ASC_NODE = 61.2530
ARG_OF_PERICENTER = 114.4766
MEAN_ANOMALY   = 245.6583

EPHEMERIS_TYPE = 0
CLASSIFICATION_TYPE = U
NORAD_CAT_ID   = 25860
ELEMENT_SET_NO = 999
REV_AT_EPOCH   = 42433
BSTAR          = .19606256E-3
MEAN_MOTION_DOT = .1438E-4
MEAN_MOTION_DDOT = 0

CCSDS_OMM_VERS = 2.0
CREATION_DATE  = 
ORIGINATOR     = 

OBJECT_NAME    = SL-16 R/B
OBJECT_ID      = 1999-039B
CENTER_NAME    = EARTH
REF_FRAME      = TEME
TIME_SYSTEM    = UTC
MEAN_ELEMENT_THEORY = SGP/SGP4

EPOCH          = 2025-12-31T18:17:29.559552
MEAN_MOTION    = 14.81618691
ECCENTRICITY   = .00160324
INCLINATION    = 98.0099
RA_OF_ASC_NODE = 59.9121
ARG_OF_PERICENTER = 115.8199
MEAN_ANOMALY   = 244.4669

EPHEMERIS_TYPE = 0
CLASSIFICATION_TYPE = U
NORAD_CAT_ID   = 25861
ELEMENT_SET_NO = 999
REV_AT_EPOCH   = 42680
BSTAR          = .15973113E-3
MEAN_MOTION_DOT = .1204E-4
MEAN_MOTION_DDOT = 0

CCSDS_OMM_VERS = 2.0
CREATION_DATE  = 
ORIGINATOR     = 

OBJECT_NAME    = DELTA 2 R/B
OBJECT_ID      = 1999-041E
CENTER_NAME    = EARTH
REF_FRAME      = TEME
TIME_SYSTEM    = UTC
MEAN_ELEMENT_THEORY = SGP/SGP4

EPOCH          = 2025-12-31T21:39:28.761408
MEAN_MOTION    = 14.11468614
ECCENTRICITY   = .0504244
INCLINATION    = 51.7595
RA_OF_ASC_NODE = 211.9476
ARG_OF_PERICENTER = 148.2468
MEAN_ANOMALY   = 214.9945

EPHEMERIS_TYPE = 0
CLASSIFICATION_TYPE = U
NORAD_CAT_ID   = 25876
ELEMENT_SET_NO = 999
REV_AT_EPOCH   = 35345
BSTAR          = .52483707E-3
MEAN_MOTION_DOT = .3028E-4
MEAN_MOTION_DDOT = 0

CCSDS_OMM_VERS = 2.0
CREATION_DATE  = 
ORIGINATOR     = 

OBJECT_NAME    = HELIOS 1B
OBJECT_ID      = 1999-064A
CENTER_NAME    = EARTH
REF_FRAME      = TEME
TIME_SYSTEM    = UTC
MEAN_ELEMENT_THEORY = SGP/SGP4

EPOCH          = 2025-12-31T16:59:31.828128
MEAN_MOTION    = 14.87370792
ECCENTRICITY   = .00005335
INCLINATION    = 98.1754
RA_OF_ASC_NODE = 260.9364
ARG_OF_PERICENTER = 35.4024
MEAN_ANOMALY   = 324.7227

EPHEMERIS_TYPE = 0
CLASSIFICATION_TYPE = U
NORAD_CAT_ID   = 25977
ELEMENT_SET_NO = 999
REV_AT_EPOCH   = 67515
BSTAR          = .40657432E-3
MEAN_MOTION_DOT = .3617E-4
MEAN_MOTION_DDOT = 0

CCSDS_OMM_VERS = 2.0
CREATION_DATE  = 
ORIGINATOR     = 

OBJECT_NAME    = TERRA
OBJECT_ID      = 1999-068A
CENTER_NAME    = EARTH
REF_FRAME      = TEME
TIME_SYSTEM    = UTC
MEAN_ELEMENT_THEORY = SGP/SGP4

EPOCH          = 2025-12-31T21:50:26.077920
MEAN_MOTION    = 14.60926582
ECCENTRICITY   = .00031817
INCLINATION    = 97.9722
RA_OF_ASC_NODE = 56.8884
ARG_OF_PERICENTER = 55.6854
MEAN_ANOMALY   = 356.7189

EPHEMERIS_TYPE = 0
CLASSIFICATION_TYPE = U
NORAD_CAT_ID   = 25994
ELEMENT_SET_NO = 999
REV_AT_EPOCH   = 38518
BSTAR          = .1810797E-3
MEAN_MOTION_DOT = .842E-5
MEAN_MOTION_DDOT = 0

CCSDS_OMM_VERS = 2.0
CREATION_DATE  = 
ORIGINATOR     = 

OBJECT_NAME    = SL-16 R/B
OBJECT_ID      = 2000-006B
CENTER_NAME    = EARTH
REF_FRAME      = TEME
TIME_SYSTEM    = UTC
MEAN_ELEMENT_THEORY = SGP/SGP4

EPOCH          = 2025-12-31T21:42:08.001792
MEAN_MOTION    = 14.15813152
ECCENTRICITY   = .00187357
INCLINATION    = 71.0014
RA_OF_ASC_NODE = 240.3631
ARG_OF_PERICENTER = 282.8196
MEAN_ANOMALY   = 77.0833

EPHEMERIS_TYPE = 0
CLASSIFICATION_TYPE = U
NORAD_CAT_ID   = 26070
ELEMENT_SET_NO = 999
REV_AT_EPOCH   = 33896
BSTAR          = .18746665E-3
MEAN_MOTION_DOT = .321E-5
MEAN_MOTION_DDOT = 0

CCSDS_OMM_VERS = 2.0
CREATION_DATE  = 
ORIGINATOR     = 

OBJECT_NAME    = TITAN 4B R/B
OBJECT_ID      = 2000-047B
CENTER_NAME    = EARTH
REF_FRAME      = TEME
TIME_SYSTEM    = UTC
MEAN_ELEMENT_THEORY = SGP/SGP4

EPOCH          = 2025-12-31T21:36:55.083456
MEAN_MOTION    = 15.08936805
ECCENTRICITY   = .00376604
INCLINATION    = 67.9888
RA_OF_ASC_NODE = 231.0369
ARG_OF_PERICENTER = 121.2563
MEAN_ANOMALY   = 239.2284

EPHEMERIS_TYPE = 0
CLASSIFICATION_TYPE = U
NORAD_CAT_ID   = 26474
ELEMENT_SET_NO = 999
REV_AT_EPOCH   = 38268
BSTAR          = .35820114E-3
MEAN_MOTION_DOT = .5629E-4
MEAN_MOTION_DDOT = 0

CCSDS_OMM_VERS = 2.0
CREATION_DATE  = 
ORIGINATOR     = 

OBJECT_NAME    = ENVISAT
OBJECT_ID      = 2002-009A
CENTER_NAME    = EARTH
REF_FRAME      = TEME
TIME_SYSTEM    = UTC
MEAN_ELEMENT_THEORY = SGP/SGP4

EPOCH          = 2025-12-31T22:48:16.847136
MEAN_MOTION    = 14.39007536
ECCENTRICITY   = .00011071
INCLINATION    = 98.3626
RA_OF_ASC_NODE = 316.2065
ARG_OF_PERICENTER = 88.1807
MEAN_ANOMALY   = 295.1197

EPHEMERIS_TYPE = 0
CLASSIFICATION_TYPE = U
NORAD_CAT_ID   = 27386
ELEMENT_SET_NO = 999
REV_AT_EPOCH   = 24943
BSTAR          = .99421568E-4
MEAN_MOTION_DOT = .264E-5
MEAN_MOTION_DDOT = 0

